[{"OBJECT_NAME":"STARLINK-3639","OBJECT_ID":"2022-017X","EPOCH":"2026-03-09T22:12:30.855168","MEAN_MOTION":15.0884289,"ECCENTRICITY":0.00013497,"INCLINATION":53.219,"RA_OF_ASC_NODE":348.0566,"ARG_OF_PERICENTER":115.454,"MEAN_ANOMALY":244.6592,"EPHEMERIS_TYPE":0,"CLASSIFICATION_TYPE":"U","NORAD_CAT_ID":51789,"ELEMENT_SET_NO":999,"REV_AT_EPOCH":22231,"BSTAR":5.9659178e-5,"MEAN_MOTION_DOT":6.62e-6,"MEAN_MOTION_DDOT":0},{"OBJECT_NAME":"TLV R\/B","OBJECT_ID":"2023-188B","EPOCH":"2026-03-09T16:54:55.723104","MEAN_MOTION":15.27880264,"ECCENTRICITY":0.01149043,"INCLINATION":46.9277,"RA_OF_ASC_NODE":152.866,"ARG_OF_PERICENTER":233.4436,"MEAN_ANOMALY":125.5857,"EPHEMERIS_TYPE":0,"CLASSIFICATION_TYPE":"U","NORAD_CAT_ID":58501,"ELEMENT_SET_NO":999,"REV_AT_EPOCH":12559,"BSTAR":0.00038559521,"MEAN_MOTION_DOT":0.0001266,"MEAN_MOTION_DDOT":0}]
